COMMENT,ORIGINATOR,NORAD_CAT_ID,OBJECT_NAME,OBJECT_TYPE,CLASSIFICATION_TYPE,INTLDES,EPOCH,EPOCH_MICROSECONDS,MEAN_MOTION,ECCENTRICITY,INCLINATION,RA_OF_ASC_NODE,ARG_OF_PERICENTER,MEAN_ANOMALY,EPHEMERIS_TYPE,ELEMENT_SET_NO,REV_AT_EPOCH,BSTAR,MEAN_MOTION_DOT,MEAN_MOTION_DDOT,FILE,TLE_LINE0,TLE_LINE1,TLE_LINE2,OBJECT_ID,OBJECT_NUMBER,SEMIMAJOR_AXIS,PERIOD,APOGEE,PERIGEE,DECAYED
GENERATED VIA SPACETRACK.ORG API,18 SPCS,51976,STARLINK-3663,PAYLOAD,U,22025W,2025-06-11 21:57:54,24768,15.49893227,0.000604,53.2093,146.7919,43.4928,316.6558,0,999,18058,0.0012467,0.00071011,0.0,4753905,0 STARLINK-3663,1 51976U 22025W   25162.91520862  .00071011  00000-0  12467-2 0  9990,2 51976  53.2093 146.7919 0006040  43.4928 316.6558 15.49893227180585,2022-025W,51976,6795.175,92.91,421.144,412.936,0
GENERATED VIA SPACETRACK.ORG API,18 SPCS,51976,STARLINK-3663,PAYLOAD,U,22025W,2025-06-12 21:10:42,448800,15.50008709,0.0005961,53.21,142.1683,46.385,313.7654,0,999,18183,0.0011538,0.00065912,0.0,4754868,0 STARLINK-3663,1 51976U 22025W   25163.88243575  .00065912  00000-0  11538-2 0  9991,2 51976  53.2100 142.1683 0005961  46.3850 313.7654 15.50008709181838,2022-025W,51976,6794.838,92.903,420.753,412.652,0
GENERATED VIA SPACETRACK.ORG API,18 SPCS,51976,STARLINK-3663,PAYLOAD,U,22025W,2025-06-12 22:43:33,439584,15.50017872,0.0005959,53.21,141.8599,46.5577,313.5928,0,999,18074,0.001131,0.0006461,0.0,4754891,0 STARLINK-3663,1 51976U 22025W   25163.94691481  .00064610  00000-0  11310-2 0  9993,2 51976  53.2100 141.8599 0005959  46.5577 313.5928 15.50017872180747,2022-025W,51976,6794.811,92.902,420.725,412.627,0
GENERATED VIA SPACETRACK.ORG API,18 SPCS,51976,STARLINK-3663,PAYLOAD,U,22025W,2025-06-13 04:54:57,383712,15.50066441,0.0005959,53.2104,140.6264,47.176,312.975,0,999,18188,0.0025945,0.00150705,0.0,4755121,0 STARLINK-3663,1 51976U 22025W   25164.20483083  .00150705  00000-0  25945-2 0  9990,2 51976  53.2104 140.6264 0005959  47.1760 312.9750 15.50066441181886,2022-025W,51976,6794.669,92.899,420.583,412.485,0
GENERATED VIA SPACETRACK.ORG API,18 SPCS,51976,STARLINK-3663,PAYLOAD,U,22025W,2025-06-13 09:33:29,567232,15.50116347,0.0005968,53.2105,139.7015,48.0906,312.0612,0,999,18081,0.0028035,0.00163436,0.0,4755476,0 STARLINK-3663,1 51976U 22025W   25164.39825888  .00163436  00000-0  28035-2 0  9991,2 51976  53.2105 139.7015 0005968  48.0906 312.0612 15.50116347180813,2022-025W,51976,6794.523,92.896,420.443,412.333,0
GENERATED VIA SPACETRACK.ORG API,18 SPCS,51976,STARLINK-3663,PAYLOAD,U,22025W,2025-06-13 21:56:13,141536,15.50231353,0.000594,53.2105,137.2358,48.7353,311.4168,0,999,18199,0.0022114,0.00128777,0.0,4755819,0 STARLINK-3663,1 51976U 22025W   25164.91404099  .00128777  00000-0  22114-2 0  9997,2 51976  53.2105 137.2358 0005940  48.7353 311.4168 15.50231353181993,2022-025W,51976,6794.187,92.889,420.088,412.016,0
GENERATED VIA SPACETRACK.ORG API,18 SPCS,51976,STARLINK-3663,PAYLOAD,U,22025W,2025-06-14 04:07:34,162752,15.50238345,0.0005934,53.2108,136.0023,49.4704,310.6822,0,999,18203,0.0010372,0.00059642,0.0,4756246,0 STARLINK-3663,1 51976U 22025W   25165.17192318  .00059642  00000-0  10372-2 0  9991,2 51976  53.2108 136.0023 0005934  49.4704 310.6822 15.50238345182035,2022-025W,51976,6794.167,92.889,420.063,412.0,0
GENERATED VIA SPACETRACK.ORG API,18 SPCS,51976,STARLINK-3663,PAYLOAD,U,22025W,2025-06-14 10:18:54,710496,15.50269694,0.0005916,53.2107,134.769,50.6342,309.5191,0,999,18097,0.0010557,0.00060791,0.0,4756652,0 STARLINK-3663,1 51976U 22025W   25165.42979989  .00060791  00000-0  10557-2 0  9998,2 51976  53.2107 134.7690 0005916  50.6342 309.5191 15.50269694180979,2022-025W,51976,6794.075,92.887,419.959,411.921,0
GENERATED VIA SPACETRACK.ORG API,18 SPCS,51976,STARLINK-3663,PAYLOAD,U,22025W,2025-06-14 22:41:34,265472,15.50335193,0.0005955,53.2105,132.3033,50.9712,309.1827,0,999,18105,0.0010081,0.00058145,0.0,4756978,0 STARLINK-3663,1 51976U 22025W   25165.94553548  .00058145  00000-0  10081-2 0  9996,2 51976  53.2105 132.3033 0005955  50.9712 309.1827 15.50335193181059,2022-025W,51976,6793.884,92.883,419.794,411.703,0
GENERATED VIA SPACETRACK.ORG API,18 SPCS,51976,STARLINK-3663,PAYLOAD,U,22025W,2025-06-15 04:52:53,436864,15.50358472,0.0005879,53.2106,131.0695,52.1996,307.9546,0,999,18219,0.00085285,0.00049104,0.0,4757251,0 STARLINK-3663,1 51976U 22025W   25166.20339626  .00049104  00000-0  85285-3 0  9999,2 51976  53.2106 131.0695 0005879  52.1996 307.9546 15.50358472182198,2022-025W,51976,6793.816,92.882,419.675,411.687,0
GENERATED VIA SPACETRACK.ORG API,18 SPCS,51976,STARLINK-3663,PAYLOAD,U,22025W,2025-06-15 14:09:51,533856,15.50396498,0.0005853,53.2104,129.2198,53.4711,306.6837,0,999,18115,0.00088263,0.00050915,0.0,4757502,0 STARLINK-3663,1 51976U 22025W   25166.59017979  .00050915  00000-0  88263-3 0  9996,2 51976  53.2104 129.2198 0005853  53.4711 306.6837 15.50396498181158,2022-025W,51976,6793.705,92.879,419.546,411.593,0
GENERATED VIA SPACETRACK.ORG API,18 SPCS,51976,STARLINK-3663,PAYLOAD,U,22025W,2025-06-15 21:53:59,205984,15.50436738,0.00059,53.2104,127.6781,53.5486,306.6067,0,999,18120,0.00092659,0.00053569,0.0,4757784,0 STARLINK-3663,1 51976U 22025W   25166.91249081  .00053569  00000-0  92659-3 0  9995,2 51976  53.2104 127.6781 0005900  53.5486 306.6067 15.50436738181204,2022-025W,51976,6793.587,92.877,419.46,411.444,0
GENERATED VIA SPACETRACK.ORG API,18 SPCS,51976,STARLINK-3663,PAYLOAD,U,22025W,2025-06-16 04:05:16,899936,15.50460463,0.0005879,53.2107,126.4443,54.3967,305.759,0,999,18124,0.00077168,0.00044522,0.0,4758401,0 STARLINK-3663,1 51976U 22025W   25167.17033449  .00044522  00000-0  77168-3 0  9990,2 51976  53.2107 126.4443 0005879  54.3967 305.7590 15.50460463181244,2022-025W,51976,6793.518,92.876,419.377,411.389,0
GENERATED VIA SPACETRACK.ORG API,18 SPCS,51976,STARLINK-3663,PAYLOAD,U,22025W,2025-06-17 03:17:34,677888,15.50572027,0.0005876,53.211,121.8182,56.716,303.4413,0,999,18249,0.00093933,0.00054581,0.0,4759014,0 STARLINK-3663,1 51976U 22025W   25168.13720692  .00054581  00000-0  93933-3 0  9994,2 51976  53.2110 121.8182 0005876  56.7160 303.4413 15.50572027182492,2022-025W,51976,6793.192,92.869,419.049,411.065,0
GENERATED VIA SPACETRACK.ORG API,18 SPCS,51976,STARLINK-3663,PAYLOAD,U,22025W,2025-06-17 14:07:16,958208,15.50621313,0.0005919,53.2108,119.6597,57.8158,302.3425,0,999,18146,0.00094695,0.00055129,0.0,4759714,0 STARLINK-3663,1 51976U 22025W   25168.58839072  .00055129  00000-0  94695-3 0  9991,2 51976  53.2108 119.6597 0005919  57.8158 302.3425 15.50621313181461,2022-025W,51976,6793.048,92.866,418.934,410.892,0
GENERATED VIA SPACETRACK.ORG API,18 SPCS,51976,STARLINK-3663,PAYLOAD,U,22025W,2025-06-18 13:19:26,74560,15.50728308,0.0005818,53.2106,115.0328,60.887,299.2722,0,999,18271,0.0009496,0.00055498,0.0,4760366,0 STARLINK-3663,1 51976U 22025W   25169.55516290  .00055498  00000-0  94960-3 0  9997,2 51976  53.2106 115.0328 0005818  60.8870 299.2722 15.50728308182719,2022-025W,51976,6792.735,92.86,418.552,410.648,0
GENERATED VIA SPACETRACK.ORG API,18 SPCS,51976,STARLINK-3663,PAYLOAD,U,22025W,2025-06-19 03:14:40,729632,15.50798179,0.0005748,53.2097,112.2571,62.3927,297.7667,0,999,18170,0.0010159,0.00059584,0.0,4761309,0 STARLINK-3663,1 51976U 22025W   25170.13519363  .00059584  00000-0  10159-2 0  9994,2 51976  53.2097 112.2571 0005748  62.3927 297.7667 15.50798179181701,2022-025W,51976,6792.531,92.855,418.301,410.492,0
GENERATED VIA SPACETRACK.ORG API,18 SPCS,51976,STARLINK-3663,PAYLOAD,U,22025W,2025-06-19 03:14:40,729632,15.50798179,0.0005748,53.2097,112.2571,62.3927,297.7667,0,999,18280,0.0010159,0.00059584,0.0,4761488,0 STARLINK-3663,1 51976U 22025W   25170.13519363  .00059584  00000-0  10159-2 0  9994,2 51976  53.2097 112.2571 0005748  62.3927 297.7667 15.50798179182803,2022-025W,51976,6792.531,92.855,418.301,410.492,0
GENERATED VIA SPACETRACK.ORG API,18 SPCS,51976,STARLINK-3663,PAYLOAD,U,22025W,2025-06-20 00:53:52,583424,15.50897542,0.0005735,53.2103,107.9381,65.048,295.1126,0,999,18294,0.00089544,0.00052604,0.0,4762460,0 STARLINK-3663,1 51976U 22025W   25171.03741416  .00052604  00000-0  89544-3 0  9991,2 51976  53.2103 107.9381 0005735  65.0480 295.1126 15.50897542182942,2022-025W,51976,6792.241,92.849,418.002,410.211,0
GENERATED VIA SPACETRACK.ORG API,18 SPCS,51976,STARLINK-3663,PAYLOAD,U,22025W,2025-06-20 02:26:40,418016,15.50901848,0.0005811,53.2105,107.6286,64.1279,296.033,0,999,18185,0.00089083,0.00052338,0.0,4762475,0 STARLINK-3663,1 51976U 22025W   25171.10185669  .00052338  00000-0  89083-3 0  9993,2 51976  53.2105 107.6286 0005811  64.1279 296.0330 15.50901848181857,2022-025W,51976,6792.229,92.849,418.041,410.147,0
GENERATED VIA SPACETRACK.ORG API,18 SPCS,51976,STARLINK-3663,PAYLOAD,U,22025W,2025-06-21 01:38:34,227744,15.51014308,0.0005723,53.2105,103.0004,65.8087,294.3521,0,999,18310,0.00093769,0.00055358,0.0,4762749,0 STARLINK-3663,1 51976U 22025W   25172.06845171  .00055358  00000-0  93769-3 0  9991,2 51976  53.2105 103.0004 0005723  65.8087 294.3521 15.51014308183102,2022-025W,51976,6791.9,92.842,417.652,409.878,0
GENERATED VIA SPACETRACK.ORG API,18 SPCS,51976,STARLINK-3663,PAYLOAD,U,22025W,2025-06-21 01:38:34,227744,15.51014308,0.0005723,53.2105,103.0004,65.8087,294.3521,0,999,18200,0.00093769,0.00055358,0.0,4763117,0 STARLINK-3663,1 51976U 22025W   25172.06845171  .00055358  00000-0  93769-3 0  9991,2 51976  53.2105 103.0004 0005723  65.8087 294.3521 15.51014308182000,2022-025W,51976,6791.9,92.842,417.652,409.878,0
GENERATED VIA SPACETRACK.ORG API,18 SPCS,51976,STARLINK-3663,PAYLOAD,U,22025W,2025-06-22 11:39:50,824224,15.51165893,0.0005692,53.2112,96.2139,70.9296,289.233,0,999,18332,0.00088112,0.00052253,0.0,4763990,0 STARLINK-3663,1 51976U 22025W   25173.48600491  .00052253  00000-0  88112-3 0  9999,2 51976  53.2112  96.2139 0005692  70.9296 289.2330 15.51165893183327,2022-025W,51976,6791.458,92.833,417.189,409.457,0
